{
    "links": {
        "self": "http://www.neowsapp.com/rest/v1/neo/3773048?api_key=iIulBulltgU6a56xZRHN4H3l9WmuAYTsLGpBGhQ2"
    },
    "id": "3773048",
    "neo_reference_id": "3773048",
    "name": "(2017 FO102)",
    "designation": "2017 FO102",
    "nasa_jpl_url": "http://ssd.jpl.nasa.gov/sbdb.cgi?sstr=3773048",
    "absolute_magnitude_h": 25.9,
    "estimated_diameter": {
        "kilometers": {
            "estimated_diameter_min": 0.0175612318,
            "estimated_diameter_max": 0.0392681082
        },
        "meters": {
            "estimated_diameter_min": 17.561231848,
            "estimated_diameter_max": 39.2681081809
        },
        "miles": {
            "estimated_diameter_min": 0.0109120402,
            "estimated_diameter_max": 0.0244000636
        },
        "feet": {
            "estimated_diameter_min": 57.6155918963,
            "estimated_diameter_max": 128.8323800441
        }
    },
    "is_potentially_hazardous_asteroid": false,
    "close_approach_data": [
        {
            "close_approach_date": "2017-03-16",
            "close_approach_date_full": "2017-Mar-16 01:17",
            "epoch_date_close_approach": 1489627020000,
            "relative_velocity": {
                "kilometers_per_second": "3.9668000988",
                "kilometers_per_hour": "14280.4803555112",
                "miles_per_hour": "8873.3351409008"
            },
            "miss_distance": {
                "astronomical": "0.1072889854",
                "lunar": "41.7354153206",
                "kilometers": "16050203.690301098",
                "miles": "9973134.1127792324"
            },
            "orbiting_body": "Earth"
        }
    ],
    "orbital_data": {
        "orbit_id": "4",
        "orbit_determination_date": "2017-04-06 06:20:46",
        "first_observation_date": "2017-03-27",
        "last_observation_date": "2017-04-06",
        "data_arc_in_days": 10,
        "observations_used": 23,
        "orbit_uncertainty": "8",
        "minimum_orbit_intersection": ".106022",
        "jupiter_tisserand_invariant": "4.237",
        "epoch_osculation": "2457840.5",
        "eccentricity": ".3291519128430827",
        "semi_major_axis": "1.634535642202766",
        "inclination": "5.291019254891275",
        "ascending_node_longitude": "8.513109914574981",
        "orbital_period": "763.2907854401582",
        "perihelion_distance": "1.096525108961529",
        "perihelion_argument": "159.8983237454559",
        "aphelion_distance": "2.172546175444003",
        "perihelion_time": "2457820.727674245660",
        "mean_anomaly": "9.325459454430231",
        "mean_motion": ".4716420096600575",
        "equinox": "J2000",
        "orbit_class": {
            "orbit_class_type": "AMO",
            "orbit_class_description": "Near-Earth asteroid orbits similar to that of 1221 Amor",
            "orbit_class_range": "1.017 AU < q (perihelion) < 1.3 AU"
        }
    },
    "is_sentry_object": false
}